#dP2024  1  8 12  0  0.00000000      96 __u+U IGS20 EXT  IAC
## 2296 129600.00000000   900.00000000 60317 0.5000000000000
+  118   C06C07C08C09C10C11C12C13C14C16C19C20C21C22C23C24C25
+        C26C27C28C29C30C32C33C34C35C36C37C38C39C40C41C42C43
+        C44C45C46E02E03E04E05E07E08E09E10E11E12E13E14E15E18
+        E19E21E24E25E26E27E30E31E33E34E36G01G02G03G04G05G06
+        G07G08G09G10G11G12G13G14G15G16G17G18G19G20G21G22G23
+        G24G25G26G28G29G30G31G32J02J03J04R01R02R03R04R05R07
+        R08R09R11R12R13R14R15R16R17R18R19R20R21R22R24R25  0
++         9  9 10 10  9  9  8  8 10  9  9  8  8  7  8  8  9
++         8  8  9  7  9  9  9  7  8  7  8 10 10 10  9  9  8
++         8  9  8  6  7  7  8  8  7  6  6  6  8  5 10  7  7
++         5  7  7  7  7  6  5  7  7  7  6  6  5  6  5  6  6
++         7  8  7  6  8  6  7  6  8  7  8  7  7  7  6  6  6
++         7  6  7  7  9  7  6  7  9  8  9 10  9  8  8  8  8
++         7  7  9  9  7  8  7  7  5  7 10  9  7  8  8  9  0
%c M  cc GPS ccc cccc cccc cccc cccc ccccc ccccc ccccc ccccc
%c cc cc ccc ccc cccc cccc cccc cccc ccccc ccccc ccccc ccccc
%f  0.0000000  0.000000000  0.00000000000  0.000000000000000
%f  0.0000000  0.000000000  0.00000000000  0.000000000000000
%i    0    0    0    0      0      0      0      0         0
%i    0    0    0    0      0      0      0      0         0
/* IAC                                ULTRA-RAPID PREDICTION
/* S/V CLOCKS ARE ALIGNED TO GNSS TIME                      
/* G:C1WC2W R:C1PC2P E:C1XC5X C:C2IC6I J:C1CC2S             
/* PCV:IGS20_2290 OL/AL:FES2004  NONE     YN ORB:CoN CLK:CoN
*  2024 01 08 17  0  0.00000000
PC06 -16913.816661  25146.972790 -29399.453809     36.417550
PC07  -9169.265586  40975.041825  -2136.180028   -605.403482
PC08   2617.566575  27844.607668  31630.600945    126.394996
PC09  -5876.744642  24901.649999 -33172.674144   -326.018671
PC10  -3995.314133  41541.392296   3629.500598    133.804965
PC11 -23912.071284   2087.291727 -14152.319666    347.939478
PC12  -9873.100248 -12107.514989 -23077.840210    802.089518
PC13   8131.828110  31154.065444  27546.908277    405.238235
PC14 -15504.626191  -4352.199276  22809.954932    -76.067425
PC16 -17376.934427  24636.709119 -29377.278215   -270.396247
PC19  15112.552000  -6955.677950 -22383.419323   -940.554481
PC20  13796.676729  13063.600081 -20419.461116    -46.622244
PC21  -3932.028989 -27015.978640   5844.124222   -964.744416
PC22   7863.164746 -24145.157135 -11597.465366   -155.351796
PC23 -10395.138767  12804.029394 -22516.673173   -792.724627
PC24 -23394.851939 -15060.806951   1907.878264    770.628273
PC25 -23539.154797   -519.665041 -14977.535205    297.118895
PC26 -10409.079347 -19563.187250  16917.339803   -231.869632
PC27   1058.307218  17094.228224  22018.111094    253.870980
PC28 -15812.783326  19177.001451  12696.761931    192.487252
PC29  25132.306153 -10249.962919   6475.153908    225.469529
PC30  18123.380505   5648.059779  20442.093833    -13.834445
PC32   4061.879313  27006.208385  -5703.453350   -551.369069
PC33 -15128.223543   6896.507918  22414.520211   -942.588901
PC34 -19263.815368  -4430.272897 -19716.220114    342.763525
PC35  15047.084172 -19782.964788 -12656.927150    461.920048
PC36  23819.657501   1648.426795  14469.622085    -60.513582
PC37   9452.653910  19786.905950 -17274.620789   -931.568350
PC38  -6056.231551  24398.921967  33925.436221    129.196336
PC39 -23682.341926  24715.605453 -24710.744342     -6.551426
PC40 -16075.263307  38436.848822  -5419.970485    -51.242403
PC41  -8270.294803  23654.101132  12328.520550   -878.238757
PC42 -13390.337579 -14683.198323  19644.642509   -468.536334
PC43 -25208.633987   9526.150625  -7303.597839     55.589181
PC44  -1647.179119 -17228.122306 -21895.000366    347.690487
PC45  10016.984810 -12890.502242  22623.020611    -61.557559
PC46  23786.150660  14607.996961   -977.287981   -114.040230
PE02   2771.437392  26267.786813 -13393.741382     93.386464
PE03  -7649.121428  26255.109559 -11327.254686    -85.659464
PE04  -8917.949588 -16054.128200  23217.108196   -298.971142
PE05 -19579.559429  21064.110677   7017.488257   4708.390186
PE07  20020.091422  -3077.402940 -21583.967868    -97.344102
PE08   8311.433017  16509.165304 -23121.848030   -204.870526
PE09 -19865.404862   3014.758298  21731.740367   -292.306074
PE10 -26201.185531  -8398.627171 -10909.618705   -592.604436
PE11 -29528.565200  -2072.578877   -653.598341   3280.766349
PE12 -19321.235426 -12945.949222 -18316.483750   -854.016187
PE13  29459.478721   2490.921832   1378.937073    -19.853231
PE14  15724.864464 -27486.318513  -3999.638666      4.822286
PE15  18821.678876  13081.165301  18737.802948    -79.092026
PE18 -15035.785751  18901.450994   -843.117550    187.974040
PE19   9636.344780 -26383.689879   9331.444183   -852.536121
PE21  11517.198821 -13474.368395  23698.262928   -572.888374
PE24 -19842.681357  -8176.245271 -20393.602715   -530.980475
PE25 -11761.425750  13122.248643 -23786.252602     -0.803709
PE26  22212.695614  -9818.556462 -16910.639971    333.455971
PE27  19781.521869   7726.394538  20622.713614   -244.375258
PE30  16084.066232  24320.638364   5145.991396   -808.215487
PE31 -16285.195225 -24105.864010  -5433.977178    -13.349083
PE33   3348.214121 -15780.090099 -24808.537943      5.611900
PE34  -2634.075544  15858.943196  24856.379791    -87.876975
PE36 -22707.736213   9392.592202  16518.503135   -169.042839
PG01 -15089.725743 -12947.408485 -18134.819163    165.585388
PG02  -8149.001973 -13939.228085 -20636.081278   -503.828102
PG03 -11464.397613 -24009.735417  -1127.656074    112.367990
PG04  -4455.586548 -17385.877905  19543.927471    260.905383
PG05   4108.575030  23307.549704  11788.729546   -157.209158
PG06 -22543.258470   6842.401248  12435.119352    451.583307
PG07 -25188.558474  -6327.521718   7132.283765    -32.359153
PG08   1786.426730 -22311.503669 -14049.523221   -161.106892
PG09 -14071.627035  -6106.858194  21601.584064     52.440084
PG10  15496.677172  -1106.439434 -21391.242516    -68.532131
PG11 -13049.090525  12342.947818  19573.919475   -532.392277
PG12   9741.451263  24734.944407  -1212.012902   -465.844296
PG13 -12199.110209  22237.762738  -7694.673761    613.875616
PG14 -17294.231542  -2720.908695 -20000.732541    293.241104
PG15   1113.357585  22734.207151 -14000.588148    115.193072
PG16   3645.043819 -20425.156192  15984.832159   -388.196039
PG17 -19309.584858   7600.432912 -16231.305421    720.342771
PG18  25618.694975   5229.221310   5211.325455   -527.158728
PG19 -20008.806953  14342.909770  -9680.403703    423.771894
PG20  -5964.152304  16114.965252  20354.190871    392.538381
PG21  -3820.858613 -14735.712431 -21334.419109    139.045142
PG22 -13908.636723   5552.562868 -21501.664864     51.709262
PG23  18316.370907  11516.282950 -15513.456344    131.457146
PG24   7052.078577  15264.835016 -21036.189248   -409.965223
PG25  16946.412559  18567.660767   8652.757436    484.544680
PG26  10104.845315 -12907.402523  20698.069995    202.167038
PG28  23980.000469  -6303.619110   9489.011262    -92.832028
PG29  12528.315402   8135.927615  21916.822907   -608.952089
PG30 -26416.827008   1291.125160  -3573.493225   -447.866182
PG31  18209.864556 -10362.157122  16349.759323   -227.167027
PG32  18976.853035 -11453.137492 -14283.268631   -603.498430
PJ02 -20934.246392  23748.492473 -23203.093091     -1.037633
PJ03 -28918.736485  27008.977838  19519.236803     -0.136976
PJ04 -26996.380202  29475.731321  19248.341680     76.287737
PR01  -8831.207013  20916.716204  11621.834847     74.085836
PR02  -1994.870574  24771.577891  -5869.055582    -22.376248
PR03   6781.608945  14564.558031 -19789.165532     92.385371
PR04  11299.278416  -3358.702437 -22589.108083    218.615084
PR05   9994.490257 -19405.909007 -13161.620125    125.055256
PR07  -7195.898583 -13640.201498  20340.906335     73.146449
PR08 -11448.963524   3702.512270  22556.444643    -73.945803
PR09  -8437.388098 -17358.130850  16735.764965    163.286042
PR11 -19804.646355  -7662.680802 -14138.078639   -226.241266
PR12  -7967.851903   7699.051716 -22958.075741     35.384027
PR13   6270.694122  16572.291742 -18373.337812    -43.087585
PR14  19254.095095  16676.447725  -1193.902789     25.916486
PR15  19331.884593   6652.074980  15264.693973     83.274692
PR16   8079.125414  -7423.455099  23028.601092     22.297587
PR17  14680.660211   4705.489497  20348.419063     50.590905
PR18  23883.095225  -4375.816895   7753.049192    121.091617
PR19  22167.481266 -10212.127958  -7410.066201   -261.277767
PR20   4696.152157 -11724.612757 -22138.152201   -106.476163
PR21 -14953.290278  -4527.273072 -20148.596922    -67.352894
PR22 -24285.082453   4170.291391  -6595.575841    102.198871
PR24  -3472.418170  12233.610458  22132.697583    -39.104133
PR25 -14582.123232  -5541.896521 -20166.210727     23.723833
EOF
